{"type": "FeatureCollection", "features": [ {"type": "Feature", "properties": {"norad_id": 40534, "name": "GPS BIIF-9  (PRN 26)", "group": "gps-ops", "lat": 35.486101964676685, "lon": -115.89822826546381, "alt_km": 19895.97040010363, "timestamp": "2025-12-13T15:35:12.365501+00:00", "meta": {"OBJECT_NAME": "GPS BIIF-9  (PRN 26)", "OBJECT_ID": "2015-013A", "EPOCH": "2025-12-11T14:12:34.875648", "MEAN_MOTION": 2.00562655, "ECCENTRICITY": 0.01070076, "INCLINATION": 53.1979, "RA_OF_ASC_NODE": 211.9377, "ARG_OF_PERICENTER": 38.4526, "MEAN_ANOMALY": 322.3807, "EPHEMERIS_TYPE": 0, "CLASSIFICATION_TYPE": "U", "NORAD_CAT_ID": 40534, "ELEMENT_SET_NO": 999, "REV_AT_EPOCH": 7806, "BSTAR": 0, "MEAN_MOTION_DOT": 2.2e-07, "MEAN_MOTION_DDOT": 0}, "tle": {"line1": "1 40534U 15013A   25345.59207032  .00000022  00000+0  00000+0 0  9995", "line2": "2 40534  53.1979 211.9377 0107007  38.4526 322.3807  2.00562655 78062"}}, "geometry": {"type": "Point", "coordinates": [-115.89822826546381, 35.486101964676685]}}, {"type": "Feature", "properties": {"norad_id": 40730, "name": "GPS BIIF-10 (PRN 08)", "group": "gps-ops", "lat": -50.27335226842821, "lon": -145.68796176855406, "alt_km": 20227.20642249253, "timestamp": "2025-12-13T15:35:12.365512+00:00", "meta": {"OBJECT_NAME": "GPS BIIF-10 (PRN 08)", "OBJECT_ID": "2015-033A", "EPOCH": "2025-12-12T18:00:46.336320", "MEAN_MOTION": 2.00565613, "ECCENTRICITY": 0.01109707, "INCLINATION": 54.1306, "RA_OF_ASC_NODE": 274.7724, "ARG_OF_PERICENTER": 26.8075, "MEAN_ANOMALY": 333.7759, "EPHEMERIS_TYPE": 0, "CLASSIFICATION_TYPE": "U", "NORAD_CAT_ID": 40730, "ELEMENT_SET_NO": 999, "REV_AT_EPOCH": 7625, "BSTAR": 0, "MEAN_MOTION_DOT": -7.4e-07, "MEAN_MOTION_DDOT": 0}, "tle": {"line1": "1 40730U 15033A   25346.75053630 -.00000074  00000+0  00000+0 0  9995", "line2": "2 40730  54.1306 274.7724 0110970  26.8075 333.7759  2.00565613 76259"}}, "geometry": {"type": "Point", "coordinates": [-145.68796176855406, -50.27335226842821]}}, {"type": "Feature", "properties": {"norad_id": 41019, "name": "GPS BIIF-11 (PRN 10)", "group": "gps-ops", "lat": -49.66685808253188, "lon": -91.7006054885641, "alt_km": 19903.336635451305, "timestamp": "2025-12-13T15:35:12.365523+00:00", "meta": {"OBJECT_NAME": "GPS BIIF-11 (PRN 10)", "OBJECT_ID": "2015-062A", "EPOCH": "2025-12-11T07:32:26.435904", "MEAN_MOTION": 2.00567124, "ECCENTRICITY": 0.01107874, "INCLINATION": 56.8311, "RA_OF_ASC_NODE": 38.0574, "ARG_OF_PERICENTER": 229.9047, "MEAN_ANOMALY": 129.1688, "EPHEMERIS_TYPE": 0, "CLASSIFICATION_TYPE": "U", "NORAD_CAT_ID": 41019, "ELEMENT_SET_NO": 999, "REV_AT_EPOCH": 7406, "BSTAR": 0, "MEAN_MOTION_DOT": -9.3e-07, "MEAN_MOTION_DDOT": 0}, "tle": {"line1": "1 41019U 15062A   25345.31419486 -.00000093  00000+0  00000+0 0  9995", "line2": "2 41019  56.8311  38.0574 0110787 229.9047 129.1688  2.00567124 74064"}}, "geometry": {"type": "Point", "coordinates": [-91.7006054885641, -49.66685808253188]}}, {"type": "Feature", "properties": {"norad_id": 41328, "name": "GPS BIIF-12 (PRN 32)", "group": "gps-ops", "lat": -3.9511897139345877, "lon": -80.45702896944798, "alt_km": 20054.879647135924, "timestamp": "2025-12-13T15:35:12.365534+00:00", "meta": {"OBJECT_NAME": "GPS BIIF-12 (PRN 32)", "OBJECT_ID": "2016-007A", "EPOCH": "2025-12-10T21:33:15.579936", "MEAN_MOTION": 2.00560768, "ECCENTRICITY": 0.0092092, "INCLINATION": 55.4051, "RA_OF_ASC_NODE": 96.9301, "ARG_OF_PERICENTER": 243.5329, "MEAN_ANOMALY": 115.5097, "EPHEMERIS_TYPE": 0, "CLASSIFICATION_TYPE": "U", "NORAD_CAT_ID": 41328, "ELEMENT_SET_NO": 999, "REV_AT_EPOCH": 7206, "BSTAR": 0, "MEAN_MOTION_DOT": 1e-08, "MEAN_MOTION_DDOT": 0}, "tle": {"line1": "1 41328U 16007A   25344.89809699  .00000001  00000+0  00000+0 0  9997", "line2": "2 41328  55.4051  96.9301 0092092 243.5329 115.5097  2.00560768 72065"}}, "geometry": {"type": "Point", "coordinates": [-80.45702896944798, -3.9511897139345877]}}, {"type": "Feature", "properties": {"norad_id": 43873, "name": "GPS BIII-1  (PRN 04)", "group": "gps-ops", "lat": 54.299033956864605, "lon": 171.99359048920542, "alt_km": 20218.405184594365, "timestamp": "2025-12-13T15:35:12.365545+00:00", "meta": {"OBJECT_NAME": "GPS BIII-1  (PRN 04)", "OBJECT_ID": "2018-109A", "EPOCH": "2025-12-12T07:06:10.304640", "MEAN_MOTION": 2.00553613, "ECCENTRICITY": 0.0037314, "INCLINATION": 55.5671, "RA_OF_ASC_NODE": 99.5642, "ARG_OF_PERICENTER": 194.9554, "MEAN_ANOMALY": 348.038, "EPHEMERIS_TYPE": 0, "CLASSIFICATION_TYPE": "U", "NORAD_CAT_ID": 43873, "ELEMENT_SET_NO": 999, "REV_AT_EPOCH": 5132, "BSTAR": 0, "MEAN_MOTION_DOT": -2e-08, "MEAN_MOTION_DDOT": 0}, "tle": {"line1": "1 43873U 18109A   25346.29595260 -.00000002  00000+0  00000+0 0  9993", "line2": "2 43873  55.5671  99.5642 0037314 194.9554 348.0380  2.00553613 51328"}}, "geometry": {"type": "Point", "coordinates": [171.99359048920542, 54.299033956864605]}}, {"type": "Feature", "properties": {"norad_id": 44506, "name": "GPS BIII-2  (PRN 18)", "group": "gps-ops", "lat": -18.29434000547772, "lon": -34.51993738213383, "alt_km": 20299.943150460243, "timestamp": "2025-12-13T15:35:12.365557+00:00", "meta": {"OBJECT_NAME": "GPS BIII-2  (PRN 18)", "OBJECT_ID": "2019-056A", "EPOCH": "2025-12-11T10:12:28.532736", "MEAN_MOTION": 2.00566237, "ECCENTRICITY": 0.00577517, "INCLINATION": 55.7218, "RA_OF_ASC_NODE": 338.6041, "ARG_OF_PERICENTER": 198.4885, "MEAN_ANOMALY": 332.8185, "EPHEMERIS_TYPE": 0, "CLASSIFICATION_TYPE": "U", "NORAD_CAT_ID": 44506, "ELEMENT_SET_NO": 999, "REV_AT_EPOCH": 4630, "BSTAR": 0, "MEAN_MOTION_DOT": -8.7e-07, "MEAN_MOTION_DDOT": 0}, "tle": {"line1": "1 44506U 19056A   25345.42533024 -.00000087  00000+0  00000+0 0  9996", "line2": "2 44506  55.7218 338.6041 0057751 198.4885 332.8185  2.00566237 46306"}}, "geometry": {"type": "Point", "coordinates": [-34.51993738213383, -18.29434000547772]}}, {"type": "Feature", "properties": {"norad_id": 45854, "name": "GPS BIII-3  (PRN 23)", "group": "gps-ops", "lat": -54.71548560985896, "lon": -32.82067079509457, "alt_km": 20155.12334724846, "timestamp": "2025-12-13T15:35:12.365567+00:00", "meta": {"OBJECT_NAME": "GPS BIII-3  (PRN 23)", "OBJECT_ID": "2020-041A", "EPOCH": "2025-12-11T05:23:02.925024", "MEAN_MOTION": 2.00561914, "ECCENTRICITY": 0.006046, "INCLINATION": 56.5461, "RA_OF_ASC_NODE": 36.2442, "ARG_OF_PERICENTER": 203.3747, "MEAN_ANOMALY": 126.9066, "EPHEMERIS_TYPE": 0, "CLASSIFICATION_TYPE": "U", "NORAD_CAT_ID": 45854, "ELEMENT_SET_NO": 999, "REV_AT_EPOCH": 4026, "BSTAR": 0, "MEAN_MOTION_DOT": -9.4e-07, "MEAN_MOTION_DDOT": 0}, "tle": {"line1": "1 45854U 20041A   25345.22433941 -.00000094  00000+0  00000+0 0  9992", "line2": "2 45854  56.5461  36.2442 0060460 203.3747 126.9066  2.00561914 40268"}}, "geometry": {"type": "Point", "coordinates": [-32.82067079509457, -54.71548560985896]}}, {"type": "Feature", "properties": {"norad_id": 46826, "name": "GPS BIII-4  (PRN 14)", "group": "gps-ops", "lat": -50.632897696508216, "lon": 100.56741367639344, "alt_km": 20074.85245343167, "timestamp": "2025-12-13T15:35:12.365579+00:00", "meta": {"OBJECT_NAME": "GPS BIII-4  (PRN 14)", "OBJECT_ID": "2020-078A", "EPOCH": "2025-12-13T00:53:29.004000", "MEAN_MOTION": 2.00566814, "ECCENTRICITY": 0.00646719, "INCLINATION": 54.015, "RA_OF_ASC_NODE": 218.3288, "ARG_OF_PERICENTER": 203.3817, "MEAN_ANOMALY": 326.8, "EPHEMERIS_TYPE": 0, "CLASSIFICATION_TYPE": "U", "NORAD_CAT_ID": 46826, "ELEMENT_SET_NO": 999, "REV_AT_EPOCH": 3777, "BSTAR": 0, "MEAN_MOTION_DOT": 2.7e-07, "MEAN_MOTION_DDOT": 0}, "tle": {"line1": "1 46826U 20078A   25347.03714125  .00000027  00000+0  00000+0 0  9994", "line2": "2 46826  54.0150 218.3288 0064671 203.3817 326.8000  2.00566814 37778"}}, "geometry": {"type": "Point", "coordinates": [100.56741367639344, -50.632897696508216]}}, {"type": "Feature", "properties": {"norad_id": 48859, "name": "GPS BIII-5  (PRN 11)", "group": "gps-ops", "lat": 53.32879358663806, "lon": 48.65906080031754, "alt_km": 20236.79845220596, "timestamp": "2025-12-13T15:35:12.365590+00:00", "meta": {"OBJECT_NAME": "GPS BIII-5  (PRN 11)", "OBJECT_ID": "2021-054A", "EPOCH": "2025-12-08T04:14:32.423424", "MEAN_MOTION": 2.00553627, "ECCENTRICITY": 0.0024678, "INCLINATION": 55.2581, "RA_OF_ASC_NODE": 340.1367, "ARG_OF_PERICENTER": 233.3994, "MEAN_ANOMALY": 212.8593, "EPHEMERIS_TYPE": 0, "CLASSIFICATION_TYPE": "U", "NORAD_CAT_ID": 48859, "ELEMENT_SET_NO": 999, "REV_AT_EPOCH": 3292, "BSTAR": 0, "MEAN_MOTION_DOT": -8.6e-07, "MEAN_MOTION_DDOT": 0}, "tle": {"line1": "1 48859U 21054A   25342.17676416 -.00000086  00000+0  00000+0 0  9993", "line2": "2 48859  55.2581 340.1367 0024678 233.3994 212.8593  2.00553627 32922"}}, "geometry": {"type": "Point", "coordinates": [48.65906080031754, 53.32879358663806]}}, {"type": "Feature", "properties": {"norad_id": 55268, "name": "GPS BIII-6  (PRN 28)", "group": "gps-ops", "lat": 45.19429886804011, "lon": -68.85645029591619, "alt_km": 20182.80803333276, "timestamp": "2025-12-13T15:35:12.365600+00:00", "meta": {"OBJECT_NAME": "GPS BIII-6  (PRN 28)", "OBJECT_ID": "2023-009A", "EPOCH": "2025-12-12T05:45:10.561248", "MEAN_MOTION": 2.00555751, "ECCENTRICITY": 0.00036962, "INCLINATION": 55.1051, "RA_OF_ASC_NODE": 155.8647, "ARG_OF_PERICENTER": 357.1101, "MEAN_ANOMALY": 185.0409, "EPHEMERIS_TYPE": 0, "CLASSIFICATION_TYPE": "U", "NORAD_CAT_ID": 55268, "ELEMENT_SET_NO": 999, "REV_AT_EPOCH": 2149, "BSTAR": 0, "MEAN_MOTION_DOT": 9.5e-07, "MEAN_MOTION_DDOT": 0}, "tle": {"line1": "1 55268U 23009A   25346.23970557  .00000095  00000+0  00000+0 0  9990", "line2": "2 55268  55.1051 155.8647 0003696 357.1101 185.0409  2.00555751 21496"}}, "geometry": {"type": "Point", "coordinates": [-68.85645029591619, 45.19429886804011]}}]}